DIRECTV 12              
1 36131U 09075A   22246.18886647 -.00000105  00000+0  00000+0 0  9994
2 36131   0.0402 314.0336 0000078 196.7472 156.8025  1.00270947 46516
BEIDOU 3                
1 36287U 10001A   22246.24168957 -.00000282  00000+0  00000+0 0  9997
2 36287   1.6452  46.0675 0001690 350.5911 173.1127  1.00267938 46293
RADUGA-1M 2             
1 36358U 10002A   22246.18799375 -.00000183  00000+0  00000+0 0  9994
2 36358   0.0439 130.2855 0000348 330.6065  34.0892  1.00261675 46144
SDO                     
1 36395U 10005A   22245.34977300 -.00000074  00000+0  00000+0 0  9990
2 36395  31.7976 107.9797 0001174 239.9264  17.5529  1.00275350 46180
INTELSAT 16 (IS-16)     
1 36397U 10006A   22246.22660994 -.00000246  00000+0  00000+0 0  9990
2 36397   0.0173 106.0868 0002133  52.0887 189.5532  1.00272527 45850
GOES 15                 
1 36411U 10008A   22245.68212014  .00000053  00000+0  00000+0 0  9999
2 36411   0.3941 276.7230 0004844 249.2692 293.4823  1.00276650 45798
ECHOSTAR 14             
1 36499U 10010A   22246.20610560 -.00000001  00000+0  00000+0 0  9999
2 36499   0.0155 189.0070 0002132 332.4448 136.1740  1.00271127 45669
SES-1                   
1 36516U 10016A   22245.61576066 -.00000114  00000+0  00000+0 0  9996
2 36516   0.0584 293.9836 0002382 224.2331 304.1866  1.00270921 45179
ASTRA 3B                
1 36581U 10021A   22246.15461160  .00000136  00000+0  00000+0 0  9995
2 36581   0.0549  51.7930 0003512 122.1934 247.4545  1.00274352 44789
COMSATBW-2              
1 36582U 10021B   22246.06906344  .00000087  00000+0  00000+0 0  9999
2 36582   0.0189 137.2381 0002345  34.9648 208.0644  1.00268630 45129
BADR-5                  
1 36592U 10025A   22246.28680326  .00000143  00000+0  00000+0 0  9990
2 36592   0.0365 124.1687 0005584  35.0898 312.3603  1.00271556 45032
COMS 1                  
1 36744U 10032A   22245.70532240 -.00000344  00000+0  00000+0 0  9998
2 36744   1.2705  92.0964 0001001  49.1259 222.6717  1.00272941 37219
ARABSAT-5A              
1 36745U 10032B   22245.85055435  .00000153  00000+0  00000+0 0  9998
2 36745   0.0516  21.2776 0005147 153.7605 143.6305  1.00268537 44752
ECHOSTAR 15             
1 36792U 10034A   22246.07826938 -.00000283  00000+0  00000+0 0  9996
2 36792   0.0588 291.2145 0001899 211.3498 166.1819  1.00271273 44529
BEIDOU 5                
1 36828U 10036A   22246.29330216 -.00000131  00000+0  00000+0 0  9993
2 36828  54.2011 175.5183 0030448 189.3591 191.1459  1.00276463 44363
NILESAT 201             
1 36830U 10037A   22246.35194192 -.00000059  00000+0  00000+0 0  9994
2 36830   0.0398 193.5580 0005640 333.2003 295.4047  1.00270926 44424
RASCOM-QAF 1R           
1 36831U 10037B   22246.18591036  .00000017  00000+0  00000+0 0  9997
2 36831   0.0269 122.6711 0005521  47.4844 241.9458  1.00271368 44429
AEHF-1 (USA 214)        
1 36868U 10039A   22245.85193455  .00000024  00000+0  00000+0 0  9993
2 36868   4.7210  85.7095 0006867  45.4980 161.4421  1.00271093 44569
QZS-1 (MICHIBIKI-1)     
1 37158U 10045A   22245.73263889 -.00000173  00000+0  00000+0 0  9995
2 37158  42.4133 132.3219 0736997 269.9098 339.5504  1.00299093 43861
XM-5                    
1 37185U 10053A   22246.11765150 -.00000024  00000+0  00000+0 0  9990
2 37185   0.0196 136.7921 0000755 269.1946 223.3987  1.00271587 43579
BSAT-3B                 
1 37207U 10056B   22245.88982145 -.00000351  00000+0  00000+0 0  9999
2 37207   0.1064 296.1069 0001140 322.4092 153.6875  1.00272457 38243
BEIDOU 6                
1 37210U 10057A   22246.28404027 -.00000112  00000+0  00000+0 0  9992
2 37210   0.9901  55.0326 0006242 137.4051  52.3432  1.00273196 43410
SKYTERRA 1              
1 37218U 10061A   22246.47663846 -.00000120  00000+0  00000+0 0  9991
2 37218   2.5356  35.0237 0001928 175.0926 202.7637  1.00271455 43362
ZHONGXING-20A           
1 37234U 10064A   22245.80899971 -.00000359  00000+0  00000+0 0  9992
2 37234   2.8374  87.7263 0002323 105.3778 192.8888  1.00274416 43151
HYLAS 1                 
1 37237U 10065A   22246.48108569 -.00000236  00000+0  00000+0 0  9991
2 37237   2.1071  89.3917 0002185  62.2449 285.1456  1.00269216 43134
INTELSAT 17 (IS-17)     
1 37238U 10065B   22246.53035566 -.00000004  00000+0  00000+0 0  9997
2 37238   0.0211 169.9859 0002693   7.1362  62.4347  1.00272742 43058
BEIDOU 7                
1 37256U 10068A   22246.55257730 -.00000171  00000+0  00000+0 0  9996
2 37256  50.0721 288.7117 0023997 202.5744 158.1954  1.00282812 42933
EUTELSAT KA-SAT 9A      
1 37258U 10069A   22246.42757973  .00000060  00000+0  00000+0 0  9995
2 37258   0.0758 277.8995 0004735 243.6344 343.9451  1.00269854 42953
HISPASAT 30W-5          
1 37264U 10070A   22246.11299181 -.00000217  00000+0  00000+0 0  9997
2 37264   0.0279 122.5252 0005646  34.9599 195.4354  1.00269880 42798
KOREASAT 6              
1 37265U 10070B   22245.91983017 -.00000362  00000+0  00000+0 0  9994
2 37265   0.0146  79.7456 0001338  89.0245 260.4226  1.00271575 42812
BEIDOU 8                
1 37384U 11013A   22246.29126167 -.00000157  00000+0  00000+0 0  9993
2 37384  60.4063  53.4869 0023536 177.1439 324.3048  1.00286940 41809
INTELSAT NEW DAWN       
1 37392U 11016A   22245.85170229  .00000156  00000+0  00000+0 0  9992
2 37392   0.0170 199.0815 0001186 277.0116 205.2846  1.00269876 41648
YAHSAT 1A               
1 37393U 11016B   22245.86893028  .00000100  00000+0  00000+0 0  9992
2 37393   0.0319 266.1330 0001534 237.9579 203.2292  1.00272056 28537
SBIRS GEO-1 (USA 230)   
1 37481U 11019A   22245.64915839 -.00000008  00000+0  00000+0 0  9992
2 37481   1.9827  27.8864 0002001 141.1482 112.6316  1.00272413 41523
TELSTAR 14R             
1 37602U 11021A   22246.12556927 -.00000281  00000+0  00000+0 0  9996
2 37602   0.0113 261.6478 0001321 191.8008 230.9868  1.00270440 41912
GSAT-8                  
1 37605U 11022A   22245.87122765  .00000085  00000+0  00000+0 0  9991
2 37605   0.0186 127.3500 0004238 119.1410 104.1897  1.00271778 39342
ST-2                    
1 37606U 11022B   22246.08397472 -.00000212  00000+0  00000+0 0  9998
2 37606   0.0118 138.7753 0001685  67.8670 253.7986  1.00270813 41380
CHINASAT 10 (ZX 10)     
1 37677U 11026A   22246.21293303 -.00000353  00000+0  00000+0 0  9999
2 37677   0.0327 191.1817 0004346 342.1687 356.1603  1.00272131 41095
TIANLIAN 1-02           
1 37737U 11032A   22246.29239469 -.00000051  00000+0  00000+0 0  9999
2 37737   2.4901  74.6088 0081791   2.4414 177.6734  1.00273348 40859
GSAT-12                 
1 37746U 11034A   22245.88538245  .00000124  00000+0  00000+0 0  9999
2 37746   1.5684  91.6336 0010520  13.4145 243.6481  1.00273663 29622
SES-3                   
1 37748U 11035A   22245.61541184 -.00000101  00000+0  00000+0 0  9995
2 37748   0.0619 298.5783 0002714 225.8231 295.8912  1.00271574 40722
KAZSAT-2                
1 37749U 11035B   22245.66961350 -.00000199  00000+0  00000+0 0  9999
2 37749   0.0233 121.9668 0000335  57.9953 129.4002  1.00276842 39518
BEIDOU 9                
1 37763U 11038A   22245.83352799 -.00000078  00000+0  00000+0 0  9994
2 37763  54.4828 178.0209 0099202 228.2453 330.8289  1.00264959 40771
ASTRA 1N                
1 37775U 11041A   22246.14196295  .00000119  00000+0  00000+0 0  9998
2 37775   0.0532  30.3647 0002842  71.2124 310.9739  1.00271854 40539
BSAT-3C (JCSAT-110R)    
1 37776U 11041B   22246.51021524 -.00000353  00000+0  00000+0 0  9993
2 37776   0.0645 296.5914 0000361 293.6669  45.9878  1.00269705 40650
PAKSAT-1R               
1 37779U 11042A   22246.28889605  .00000152  00000+0  00000+0 0  9999
2 37779   0.0138  63.9082 0000864 105.5151 315.0226  1.00277361 40416
CHINASAT 1A (ZX 1A)     
1 37804U 11047A   22246.51229862 -.00000340  00000+0  00000+0 0  9992
2 37804   0.1453 102.5237 0003041 165.6474  28.6885  1.00270169 40207
SES-2                   
1 37809U 11049A   22246.22148650 -.00000197  00000+0  00000+0 0  9992
2 37809   0.0555 295.2131 0002904 219.9696 179.8897  1.00272145 40133
ARABSAT-5C              
1 37810U 11049B   22246.14213734  .00000122  00000+0  00000+0 0  9998
2 37810   0.0553  12.4223 0007354 164.3590 236.6288  1.00273237 40043
EUTELSAT 7 WEST A       
1 37816U 11051A   22245.63442153 -.00000060  00000+0  00000+0 0  9991
2 37816   0.0759  40.4372 0005269 131.2874  31.1106  1.00271828 40023
QUETZSAT 1              
1 37826U 11054A   22245.54879076 -.00000241  00000+0  00000+0 0  9994
2 37826   0.0600 294.3855 0003020 218.6863 309.1658  1.00274934 36022
INTELSAT 18 (IS-18)     
1 37834U 11056A   22245.74350921  .00000053  00000+0  00000+0 0  9990
2 37834   0.0343   3.8791 0002113 143.7907 281.8622  1.00272716 39976
EUTELSAT 16A            
1 37836U 11057A   22246.17410752  .00000103  00000+0  00000+0 0  9996
2 37836   0.0691  13.2075 0004963 151.2652 256.4790  1.00272591 39920
VIASAT-1                
1 37843U 11059A   22246.11765073 -.00000025  00000+0  00000+0 0  9993
2 37843   0.0166 176.9703 0002281 335.2744 117.2317  1.00272240 40402
ASIASAT 7               
1 37933U 11069A   22245.82479821 -.00000334  00000+0  00000+0 0  9997
2 37933   0.0172 151.2123 0001459 354.0684 239.1115  1.00271382 39593
BEIDOU 10               
1 37948U 11073A   22246.58773174 -.00000126  00000+0  00000+0 0  9999
2 37948  50.1899 288.3578 0086505 219.2272 142.8257  1.00276748 39540
LUCH 5A                 
1 37951U 11074B   22245.60572497 -.00000048  00000+0  00000+0 0  9994
2 37951   5.2068  96.2281 0004522  39.6085 230.8725  1.00271806 39318
NIGCOMSAT 1R            
1 38014U 11077A   22246.19702315  .00000144  00000+0  00000+0 0  9993
2 38014   0.0063 298.9743 0000928 336.6287 180.1314  1.00268951 39162
FENGYUN 2F              
1 38049U 12002A   22246.20134740 -.00000358  00000+0  00000+0 0  9991
2 38049   3.9754  79.0700 0000513 101.8205 345.8786  1.00262990 39027
WGS F4 (USA 233)        
1 38070U 12003A   22245.58175250 -.00000214  00000+0  00000+0 0  9998
2 38070   0.0110 148.3106 0000249 351.8706 139.3482  1.00270972 30270
